*******************************************************************************
Ephemeris / WWW_USER Mon Mar 24 07:41:06 2025 Pasadena, USA      / Horizons    
*******************************************************************************
Target body name: (2017 SN16)                     {source: JPL#20}
Center body name: Earth (399)                     {source: DE441}
Center-site name: Mauna Kea
*******************************************************************************
Start time      : A.D. 2018-Nov-29 03:51:00.0000 UT      
Stop  time      : A.D. 2018-Nov-29 16:29:00.0000 UT      
Step-size       : 1 minutes
*******************************************************************************
Target pole/equ : undefined
Target radii    : undefined                                                    
Center geodetic : 204.5278, 19.8260847, 4.21024   {E-lon(deg),Lat(deg),Alt(km)}
Center cylindric: 204.5278, 6006.35451, 2151.0229 {E-lon(deg),Dxy(km),Dz(km)}
Center pole/equ : ITRF93                          {East-longitude positive}
Center radii    : 6378.137, 6378.137, 6356.752 km {Equator_a, b, pole_c}       
Target primary  : Sun
Vis. interferer : MOON (R_eq= 1737.400) km        {source: DE441}
Rel. light bend : Sun                             {source: DE441}
Rel. lght bnd GM: 1.3271E+11 km^3/s^2                                          
Small-body perts: Yes                             {source: SB441-N16}
Atmos refraction: NO (AIRLESS)
RA format       : HMS
Time format     : CAL 
Calendar mode   : Mixed Julian/Gregorian
RTS-only print  : NO       
EOP file        : eop.250321.p250617                                           
EOP coverage    : DATA-BASED 1962-JAN-20 TO 2025-MAR-21. PREDICTS-> 2025-JUN-16
Units conversion: 1 au= 149597870.700 km, c= 299792.458 km/s, 1 day= 86400.0 s 
Table cut-offs 1: Elevation (-90.0deg=NO ),Airmass (>38.000=NO), Daylight (YES)
Table cut-offs 2: Solar elongation (  0.0,180.0=NO ),Local Hour Angle( 0.0=NO )
Table cut-offs 3: RA/DEC angular rate (     0.0=NO )                           
*******************************************************************************
Initial IAU76/J2000 heliocentric ecliptic osculating elements (au, days, deg.):
  EPOCH=  2458305.5 ! 2018-Jul-06.00 (TDB)         Residual RMS= .23751        
   EC= .1454884975659386   QR= .8682464985612274   TP= 2458145.5722438502      
   OM= 2.759719470837934   W=  137.1017088998531   IN= 13.38264682844635       
  Equivalent ICRF heliocentric cartesian coordinates (au, au/d):
   X= 5.756755401261899E-01  Y=-7.953424559592890E-01  Z=-6.031561894536019E-01
  VX= 1.332076113263395E-02 VY= 5.454663564585547E-03 VZ= 3.896229736425836E-03
Asteroid physical parameters (km, seconds, rotational period in hours):        
   GM= n.a.                RAD= n.a.               ROTPER= n.a.                
   H= 23.34                G= .150                 B-V= n.a.                   
                           ALBEDO= n.a.            STYP= n.a.                  
*******************************************************************************
 Date__(UT)__HR:MN     R.A._________(ICRF)_________DEC
******************************************************
$$SOE
 2018-Nov-29 05:54     20 25 45.581780 +32 37 21.70017
 2018-Nov-29 05:55     20 25 45.551117 +32 37 22.39782
 2018-Nov-29 05:56     20 25 45.520497 +32 37 23.09525
 2018-Nov-29 05:57     20 25 45.489918 +32 37 23.79247
 2018-Nov-29 05:58     20 25 45.459381 +32 37 24.48949
 2018-Nov-29 05:59     20 25 45.428886 +32 37 25.18629
 2018-Nov-29 06:00     20 25 45.398434 +32 37 25.88288
 2018-Nov-29 06:01     20 25 45.368025 +32 37 26.57927
 2018-Nov-29 06:02     20 25 45.337658 +32 37 27.27545
 2018-Nov-29 06:03     20 25 45.307334 +32 37 27.97142
 2018-Nov-29 06:04     20 25 45.277052 +32 37 28.66720
 2018-Nov-29 06:05     20 25 45.246814 +32 37 29.36277
 2018-Nov-29 06:06     20 25 45.216619 +32 37 30.05814
 2018-Nov-29 06:07     20 25 45.186467 +32 37 30.75331
 2018-Nov-29 06:08     20 25 45.156359 +32 37 31.44828
 2018-Nov-29 06:09     20 25 45.126294 +32 37 32.14306
 2018-Nov-29 06:10     20 25 45.096273 +32 37 32.83764
 2018-Nov-29 06:11     20 25 45.066295 +32 37 33.53203
 2018-Nov-29 06:12     20 25 45.036362 +32 37 34.22622
 2018-Nov-29 06:13     20 25 45.006472 +32 37 34.92022
 2018-Nov-29 06:14     20 25 44.976627 +32 37 35.61404
 2018-Nov-29 06:15     20 25 44.946825 +32 37 36.30766
 2018-Nov-29 06:16     20 25 44.917068 +32 37 37.00110
 2018-Nov-29 06:17     20 25 44.887356 +32 37 37.69435
 2018-Nov-29 06:18     20 25 44.857688 +32 37 38.38741
 2018-Nov-29 06:19     20 25 44.828065 +32 37 39.08029
 2018-Nov-29 06:20     20 25 44.798486 +32 37 39.77299
 2018-Nov-29 06:21     20 25 44.768953 +32 37 40.46551
 2018-Nov-29 06:22     20 25 44.739464 +32 37 41.15785
 2018-Nov-29 06:23     20 25 44.710020 +32 37 41.85001
 2018-Nov-29 06:24     20 25 44.680622 +32 37 42.54199
 2018-Nov-29 06:25     20 25 44.651269 +32 37 43.23380
 2018-Nov-29 06:26     20 25 44.621962 +32 37 43.92543
 2018-Nov-29 06:27     20 25 44.592700 +32 37 44.61689
 2018-Nov-29 06:28     20 25 44.563483 +32 37 45.30818
 2018-Nov-29 06:29     20 25 44.534313 +32 37 45.99931
 2018-Nov-29 06:30     20 25 44.505188 +32 37 46.69026
 2018-Nov-29 06:31     20 25 44.476109 +32 37 47.38104
 2018-Nov-29 06:32     20 25 44.447076 +32 37 48.07166
 2018-Nov-29 06:33     20 25 44.418089 +32 37 48.76211
 2018-Nov-29 06:34     20 25 44.389149 +32 37 49.45240
 2018-Nov-29 06:35     20 25 44.360255 +32 37 50.14253
 2018-Nov-29 06:36     20 25 44.331407 +32 37 50.83250
 2018-Nov-29 06:37     20 25 44.302606 +32 37 51.52231
 2018-Nov-29 06:38     20 25 44.273852 +32 37 52.21196
 2018-Nov-29 06:39     20 25 44.245144 +32 37 52.90146
 2018-Nov-29 06:40     20 25 44.216483 +32 37 53.59080
 2018-Nov-29 06:41     20 25 44.187869 +32 37 54.27999
 2018-Nov-29 06:42     20 25 44.159302 +32 37 54.96903
 2018-Nov-29 06:43     20 25 44.130782 +32 37 55.65791
 2018-Nov-29 06:44     20 25 44.102309 +32 37 56.34665
 2018-Nov-29 06:45     20 25 44.073883 +32 37 57.03524
 2018-Nov-29 06:46     20 25 44.045505 +32 37 57.72368
 2018-Nov-29 06:47     20 25 44.017174 +32 37 58.41198
 2018-Nov-29 06:48     20 25 43.988891 +32 37 59.10013
 2018-Nov-29 06:49     20 25 43.960655 +32 37 59.78815
 2018-Nov-29 06:50     20 25 43.932467 +32 38 00.47602
 2018-Nov-29 06:51     20 25 43.904327 +32 38 01.16375
 2018-Nov-29 06:52     20 25 43.876235 +32 38 01.85135
 2018-Nov-29 06:53     20 25 43.848191 +32 38 02.53881
 2018-Nov-29 06:54     20 25 43.820194 +32 38 03.22613
 2018-Nov-29 06:55     20 25 43.792246 +32 38 03.91332
 2018-Nov-29 06:56     20 25 43.764346 +32 38 04.60038
 2018-Nov-29 06:57     20 25 43.736494 +32 38 05.28731
 2018-Nov-29 06:58     20 25 43.708691 +32 38 05.97411
 2018-Nov-29 06:59     20 25 43.680935 +32 38 06.66078
 2018-Nov-29 07:00     20 25 43.653229 +32 38 07.34733
 2018-Nov-29 07:01     20 25 43.625571 +32 38 08.03375
 2018-Nov-29 07:02     20 25 43.597961 +32 38 08.72004
 2018-Nov-29 07:03     20 25 43.570401 +32 38 09.40622
 2018-Nov-29 07:04     20 25 43.542889 +32 38 10.09228
 2018-Nov-29 07:05     20 25 43.515426 +32 38 10.77821
 2018-Nov-29 07:06     20 25 43.488011 +32 38 11.46403
 2018-Nov-29 07:07     20 25 43.460646 +32 38 12.14974
 2018-Nov-29 07:08     20 25 43.433330 +32 38 12.83533
 2018-Nov-29 07:09     20 25 43.406063 +32 38 13.52080
 2018-Nov-29 07:10     20 25 43.378845 +32 38 14.20617
 2018-Nov-29 07:11     20 25 43.351676 +32 38 14.89142
 2018-Nov-29 07:12     20 25 43.324557 +32 38 15.57657
 2018-Nov-29 07:13     20 25 43.297487 +32 38 16.26161
 2018-Nov-29 07:14     20 25 43.270467 +32 38 16.94654
 2018-Nov-29 07:15     20 25 43.243496 +32 38 17.63137
 2018-Nov-29 07:16     20 25 43.216574 +32 38 18.31610
 2018-Nov-29 07:17     20 25 43.189702 +32 38 19.00072
 2018-Nov-29 07:18     20 25 43.162880 +32 38 19.68525
 2018-Nov-29 07:19     20 25 43.136107 +32 38 20.36968
 2018-Nov-29 07:20     20 25 43.109385 +32 38 21.05401
 2018-Nov-29 07:21     20 25 43.082712 +32 38 21.73825
 2018-Nov-29 07:22     20 25 43.056089 +32 38 22.42239
 2018-Nov-29 07:23     20 25 43.029516 +32 38 23.10644
 2018-Nov-29 07:24     20 25 43.002993 +32 38 23.79040
 2018-Nov-29 07:25     20 25 42.976520 +32 38 24.47427
 2018-Nov-29 07:26     20 25 42.950097 +32 38 25.15805
 2018-Nov-29 07:27     20 25 42.923724 +32 38 25.84175
 2018-Nov-29 07:28     20 25 42.897401 +32 38 26.52536
 2018-Nov-29 07:29     20 25 42.871129 +32 38 27.20889
 2018-Nov-29 07:30     20 25 42.844907 +32 38 27.89234
 2018-Nov-29 07:31     20 25 42.818735 +32 38 28.57571
 2018-Nov-29 07:32     20 25 42.792614 +32 38 29.25900
 2018-Nov-29 07:33     20 25 42.766543 +32 38 29.94221
 2018-Nov-29 07:34     20 25 42.740522 +32 38 30.62535
 2018-Nov-29 07:35     20 25 42.714552 +32 38 31.30841
 2018-Nov-29 07:36     20 25 42.688633 +32 38 31.99140
 2018-Nov-29 07:37     20 25 42.662764 +32 38 32.67432
 2018-Nov-29 07:38     20 25 42.636946 +32 38 33.35716
 2018-Nov-29 07:39     20 25 42.611178 +32 38 34.03995
 2018-Nov-29 07:40     20 25 42.585461 +32 38 34.72266
 2018-Nov-29 07:41     20 25 42.559795 +32 38 35.40531
 2018-Nov-29 07:42     20 25 42.534179 +32 38 36.08790
 2018-Nov-29 07:43     20 25 42.508615 +32 38 36.77042
 2018-Nov-29 07:44     20 25 42.483101 +32 38 37.45288
 2018-Nov-29 07:45     20 25 42.457638 +32 38 38.13529
 2018-Nov-29 07:46     20 25 42.432226 +32 38 38.81764
 2018-Nov-29 07:47     20 25 42.406865 +32 38 39.49993
 2018-Nov-29 07:48     20 25 42.381555 +32 38 40.18217
 2018-Nov-29 07:49     20 25 42.356295 +32 38 40.86435
 2018-Nov-29 07:50     20 25 42.331087 +32 38 41.54649
 2018-Nov-29 07:51     20 25 42.305930 +32 38 42.22857
 2018-Nov-29 07:52     20 25 42.280824 +32 38 42.91061
 2018-Nov-29 07:53     20 25 42.255769 +32 38 43.59259
 2018-Nov-29 07:54     20 25 42.230765 +32 38 44.27454
 2018-Nov-29 07:55     20 25 42.205812 +32 38 44.95644
 2018-Nov-29 07:56     20 25 42.180910 +32 38 45.63830
